{"fetched_at":"2026-07-15T17:46:46.517Z","source":"https://celestrak.org/NORAD/elements/gp.php?GROUP=oneweb&FORMAT=JSON","constellation":"oneweb","records":[{"OBJECT_NAME":"ONEWEB-0427","OBJECT_ID":"2021-132AG","EPOCH":"2026-07-14T21:30:05.321088","CLASSIFICATION_TYPE":"U","MEAN_MOTION":13.18686297,"ECCENTRICITY":0.0001819,"INCLINATION":87.9199,"RA_OF_ASC_NODE":329.9255,"ARG_OF_PERICENTER":91.725,"MEAN_ANOMALY":268.4091,"EPHEMERIS_TYPE":0,"NORAD_CAT_ID":50499,"ELEMENT_SET_NO":999,"REV_AT_EPOCH":22526,"BSTAR":-0.000070147,"MEAN_MOTION_DOT":-1.5e-7,"MEAN_MOTION_DDOT":0},{"OBJECT_NAME":"ONEWEB-0429","OBJECT_ID":"2021-132AH","EPOCH":"2026-07-14T21:10:38.695584","CLASSIFICATION_TYPE":"U","MEAN_MOTION":13.18687166,"ECCENTRICITY":0.0001923,"INCLINATION":87.9189,"RA_OF_ASC_NODE":329.9505,"ARG_OF_PERICENTER":101.8765,"MEAN_ANOMALY":258.2583,"EPHEMERIS_TYPE":0,"NORAD_CAT_ID":50500,"ELEMENT_SET_NO":999,"REV_AT_EPOCH":22523,"BSTAR":-0.00014387,"MEAN_MOTION_DOT":-4.4e-7,"MEAN_MOTION_DDOT":0},{"OBJECT_NAME":"ONEWEB-0430","OBJECT_ID":"2021-132AJ","EPOCH":"2026-07-14T20:53:38.809248","CLASSIFICATION_TYPE":"U","MEAN_MOTION":13.18688156,"ECCENTRICITY":0.0002068,"INCLINATION":87.919,"RA_OF_ASC_NODE":329.9519,"ARG_OF_PERICENTER":102.2368,"MEAN_ANOMALY":257.8996,"EPHEMERIS_TYPE":0,"NORAD_CAT_ID":50501,"ELEMENT_SET_NO":999,"REV_AT_EPOCH":22527,"BSTAR":-0.000037151,"MEAN_MOTION_DOT":-2e-8,"MEAN_MOTION_DDOT":0},{"OBJECT_NAME":"ONEWEB-0432","OBJECT_ID":"2021-132AK","EPOCH":"2026-07-14T22:18:27.312192","CLASSIFICATION_TYPE":"U","MEAN_MOTION":13.18686516,"ECCENTRICITY":0.0002339,"INCLINATION":87.9194,"RA_OF_ASC_NODE":329.9262,"ARG_OF_PERICENTER":97.2889,"MEAN_ANOMALY":262.851,"EPHEMERIS_TYPE":0,"NORAD_CAT_ID":50502,"ELEMENT_SET_NO":999,"REV_AT_EPOCH":22523,"BSTAR":0.00012062,"MEAN_MOTION_DOT":6e-7,"MEAN_MOTION_DDOT":0},{"OBJECT_NAME":"ONEWEB-0440","OBJECT_ID":"2021-132AL","EPOCH":"2026-07-14T21:22:47.500320","CLASSIFICATION_TYPE":"U","MEAN_MOTION":13.18686783,"ECCENTRICITY":0.000169,"INCLINATION":87.9197,"RA_OF_ASC_NODE":329.9455,"ARG_OF_PERICENTER":107.2,"MEAN_ANOMALY":252.9317,"EPHEMERIS_TYPE":0,"NORAD_CAT_ID":50503,"ELEMENT_SET_NO":999,"REV_AT_EPOCH":22522,"BSTAR":-0.0000083021,"MEAN_MOTION_DOT":1e-7,"MEAN_MOTION_DDOT":0},{"OBJECT_NAME":"ONEWEB-0450","OBJECT_ID":"2021-132AM","EPOCH":"2026-07-14T21:13:16.989024","CLASSIFICATION_TYPE":"U","MEAN_MOTION":13.18686526,"ECCENTRICITY":0.0001996,"INCLINATION":87.9189,"RA_OF_ASC_NODE":329.9488,"ARG_OF_PERICENTER":103.296,"MEAN_ANOMALY":256.8395,"EPHEMERIS_TYPE":0,"NORAD_CAT_ID":50504,"ELEMENT_SET_NO":999,"REV_AT_EPOCH":22525,"BSTAR":-0.000010062,"MEAN_MOTION_DOT":9e-8,"MEAN_MOTION_DDOT":0},{"OBJECT_NAME":"ONEWEB-0410","OBJECT_ID":"2022-012A","EPOCH":"2026-07-15T00:14:16.167840","CLASSIFICATION_TYPE":"U","MEAN_MOTION":13.17650379,"ECCENTRICITY":0.0001754,"INCLINATION":87.9156,"RA_OF_ASC_NODE":0.3243,"ARG_OF_PERICENTER":50.3905,"MEAN_ANOMALY":309.7381,"EPHEMERIS_TYPE":0,"NORAD_CAT_ID":51622,"ELEMENT_SET_NO":999,"REV_AT_EPOCH":21736,"BSTAR":0.000051802,"MEAN_MOTION_DOT":3.3e-7,"MEAN_MOTION_DDOT":0},{"OBJECT_NAME":"ONEWEB-0411","OBJECT_ID":"2022-012B","EPOCH":"2026-07-15T00:52:36.624000","CLASSIFICATION_TYPE":"U","MEAN_MOTION":13.10376497,"ECCENTRICITY":0.0002302,"INCLINATION":87.8825,"RA_OF_ASC_NODE":30.7183,"ARG_OF_PERICENTER":96.4393,"MEAN_ANOMALY":263.6996,"EPHEMERIS_TYPE":0,"NORAD_CAT_ID":51623,"ELEMENT_SET_NO":999,"REV_AT_EPOCH":21293,"BSTAR":-0.0016193,"MEAN_MOTION_DOT":-0.00000553,"MEAN_MOTION_DDOT":0},{"OBJECT_NAME":"ONEWEB-0415","OBJECT_ID":"2022-012C","EPOCH":"2026-07-15T02:37:39.898848","CLASSIFICATION_TYPE":"U","MEAN_MOTION":13.10376535,"ECCENTRICITY":0.0002119,"INCLINATION":87.8819,"RA_OF_ASC_NODE":30.7015,"ARG_OF_PERICENTER":87.4684,"MEAN_ANOMALY":272.6686,"EPHEMERIS_TYPE":0,"NORAD_CAT_ID":51624,"ELEMENT_SET_NO":999,"REV_AT_EPOCH":21294,"BSTAR":-0.0018072,"MEAN_MOTION_DOT":-0.00000618,"MEAN_MOTION_DDOT":0},{"OBJECT_NAME":"ONEWEB-0416","OBJECT_ID":"2022-012D","EPOCH":"2026-07-15T01:04:50.257632","CLASSIFICATION_TYPE":"U","MEAN_MOTION":13.10377592,"ECCENTRICITY":0.0002201,"INCLINATION":87.8816,"RA_OF_ASC_NODE":30.7313,"ARG_OF_PERICENTER":83.876,"MEAN_ANOMALY":276.2618,"EPHEMERIS_TYPE":0,"NORAD_CAT_ID":51625,"ELEMENT_SET_NO":999,"REV_AT_EPOCH":21297,"BSTAR":-0.00067845,"MEAN_MOTION_DOT":-0.00000224,"MEAN_MOTION_DDOT":0},{"OBJECT_NAME":"ONEWEB-0422","OBJECT_ID":"2022-012E","EPOCH":"2026-07-15T00:28:50.701728","CLASSIFICATION_TYPE":"U","MEAN_MOTION":13.17650372,"ECCENTRICITY":0.0001854,"INCLINATION":87.9153,"RA_OF_ASC_NODE":0.3228,"ARG_OF_PERICENTER":112.771,"MEAN_ANOMALY":247.3617,"EPHEMERIS_TYPE":0,"NORAD_CAT_ID":51626,"ELEMENT_SET_NO":999,"REV_AT_EPOCH":21747,"BSTAR":-0.00023795,"MEAN_MOTION_DOT":-8e-7,"MEAN_MOTION_DDOT":0},{"OBJECT_NAME":"ONEWEB-0423","OBJECT_ID":"2022-012F","EPOCH":"2026-07-15T00:19:08.059008","CLASSIFICATION_TYPE":"U","MEAN_MOTION":13.17648764,"ECCENTRICITY":0.0001773,"INCLINATION":87.9145,"RA_OF_ASC_NODE":0.3278,"ARG_OF_PERICENTER":90.1116,"MEAN_ANOMALY":270.0219,"EPHEMERIS_TYPE":0,"NORAD_CAT_ID":51627,"ELEMENT_SET_NO":999,"REV_AT_EPOCH":21736,"BSTAR":0.000042695,"MEAN_MOTION_DOT":2.9e-7,"MEAN_MOTION_DDOT":0},{"OBJECT_NAME":"ONEWEB-0425","OBJECT_ID":"2022-012G","EPOCH":"2026-07-15T01:19:31.175616","CLASSIFICATION_TYPE":"U","MEAN_MOTION":13.10375578,"ECCENTRICITY":0.0001719,"INCLINATION":87.882,"RA_OF_ASC_NODE":30.7129,"ARG_OF_PERICENTER":80.2672,"MEAN_ANOMALY":279.8649,"EPHEMERIS_TYPE":0,"NORAD_CAT_ID":51628,"ELEMENT_SET_NO":999,"REV_AT_EPOCH":21297,"BSTAR":0.0020918,"MEAN_MOTION_DOT":0.00000743,"MEAN_MOTION_DDOT":0},{"OBJECT_NAME":"ONEWEB-0428","OBJECT_ID":"2022-012H","EPOCH":"2026-07-15T02:40:06.732192","CLASSIFICATION_TYPE":"U","MEAN_MOTION":13.10376704,"ECCENTRICITY":0.0001801,"INCLINATION":87.8812,"RA_OF_ASC_NODE":30.7085,"ARG_OF_PERICENTER":88.0836,"MEAN_ANOMALY":272.0497,"EPHEMERIS_TYPE":0,"NORAD_CAT_ID":51629,"ELEMENT_SET_NO":999,"REV_AT_EPOCH":21294,"BSTAR":-0.0015551,"MEAN_MOTION_DOT":-0.0000053,"MEAN_MOTION_DDOT":0},{"OBJECT_NAME":"ONEWEB-0431","OBJECT_ID":"2022-012J","EPOCH":"2026-07-15T01:55:56.381088","CLASSIFICATION_TYPE":"U","MEAN_MOTION":13.10370378,"ECCENTRICITY":0.0002364,"INCLINATION":87.8813,"RA_OF_ASC_NODE":30.7075,"ARG_OF_PERICENTER":96.6873,"MEAN_ANOMALY":263.4524,"EPHEMERIS_TYPE":0,"NORAD_CAT_ID":51630,"ELEMENT_SET_NO":999,"REV_AT_EPOCH":21299,"BSTAR":0.0012342,"MEAN_MOTION_DOT":0.00000443,"MEAN_MOTION_DDOT":0},{"OBJECT_NAME":"ONEWEB-0434","OBJECT_ID":"2022-012K","EPOCH":"2026-07-15T01:24:36.624672","CLASSIFICATION_TYPE":"U","MEAN_MOTION":13.10376878,"ECCENTRICITY":0.0001573,"INCLINATION":87.8823,"RA_OF_ASC_NODE":30.7381,"ARG_OF_PERICENTER":67.7793,"MEAN_ANOMALY":292.3501,"EPHEMERIS_TYPE":0,"NORAD_CAT_ID":51631,"ELEMENT_SET_NO":999,"REV_AT_EPOCH":21297,"BSTAR":0.0012177,"MEAN_MOTION_DOT":0.00000438,"MEAN_MOTION_DDOT":0}]}
